ONEWEB-0393             
1 50473U 21132E   24104.68514690  .00000055  00000+0  10794-3 0  9991
2 50473  87.9224 163.9301 0002415  95.0115 265.1292 13.17649165113486
ONEWEB-0394             
1 50474U 21132F   24104.59502154  .00000023  00000+0  25840-4 0  9998
2 50474  87.9135 133.6334 0002086  91.1505 268.9867 13.18686089116874
ONEWEB-0395             
1 50475U 21132G   24104.76542793 -.00000467  00000+0 -13527-2 0  9992
2 50475  87.9023 179.0957 0002318 100.7526 259.3863 13.11414022111597
ONEWEB-0396             
1 50476U 21132H   24104.58870229  .00000035  00000+0  55512-4 0  9992
2 50476  87.9140 133.6296 0002094  87.9873 272.1499 13.18685755116911
ONEWEB-0397             
1 50477U 21132J   24104.60292634  .00000048  00000+0  88791-4 0  9993
2 50477  87.9139 133.6278 0002105  87.1182 273.0191 13.18686204116894
ONEWEB-0398             
1 50478U 21132K   24104.73296410  .00000068  00000+0  15494-3 0  9995
2 50478  87.9019 179.0842 0002419 106.9914 253.1479 13.11416607111483
ONEWEB-0399             
1 50479U 21132L   24104.71836500  .00000250  00000+0  67023-3 0  9992
2 50479  87.9024 179.1027 0001873  91.5149 268.6194 13.11419713111473
ONEWEB-0400             
1 50480U 21132M   24104.58237504  .00000047  00000+0  85363-4 0  9990
2 50480  87.9137 133.6377 0002178 100.0690 260.0688 13.18685459116882
